NORAD_CAT_ID,OBJECT_NAME,OBJECT_TYPE,EPOCH,MEAN_MOTION,ECCENTRICITY,INCLINATION,RA_OF_ASC_NODE,ARG_OF_PERICENTER,MEAN_ANOMALY,BSTAR,MEAN_MOTION_DOT,MEAN_MOTION_DDOT,TLE_LINE0,TLE_LINE1,TLE_LINE2,SEMIMAJOR_AXIS,PERIOD,APOGEE,PERIGEE,DECAYED
53720.0,STARLINK-4642,PAYLOAD,2023-06-18 17:47:37,15.0884122,9.73e-05,53.2174,40.3725,82.8112,277.2991,-5.6384e-05,-1.185e-05,0.0,0 STARLINK-4642,1 53720U 22107W   23169.74140418 -.00001185  00000-0 -56384-4 0  9996,2 53720  53.2174  40.3725 0000973  82.8112 277.2991 15.08841220 43750,6917.877,95.437,540.415,539.069,0.0
53720.0,STARLINK-4642,PAYLOAD,2023-06-19 00:09:09,15.08846409,9.72e-05,53.2173,39.1832,85.6552,274.4552,3.956e-06,-2.25e-06,0.0,0 STARLINK-4642,1 53720U 22107W   23170.00635842 -.00000225  00000-0  39560-5 0  9998,2 53720  53.2173  39.1832 0000972  85.6552 274.4552 15.08846409 43792,6917.861,95.437,540.398,539.053,0.0
53720.0,STARLINK-4642,PAYLOAD,2023-06-19 08:06:05,15.08841962,9.31e-05,53.2175,37.6964,81.6368,278.473,-3.0078e-05,-7.66e-06,0.0,0 STARLINK-4642,1 53720U 22107W   23170.33756233 -.00000766  00000-0 -30078-4 0  9997,2 53720  53.2175  37.6964 0000931  81.6368 278.4730 15.08841962 43846,6917.874,95.437,540.383,539.095,0.0
53720.0,STARLINK-4642,PAYLOAD,2023-06-19 23:59:56,15.08834389,9.62e-05,53.2172,34.7231,77.6527,282.4573,0.00019047,2.744e-05,0.0,0 STARLINK-4642,1 53720U 22107W   23170.99996266  .00002744  00000-0  19047-3 0  9999,2 53720  53.2172  34.7231 0000962  77.6527 282.4573 15.08834389 44402,6917.898,95.438,540.428,539.097,0.0
53720.0,STARLINK-4642,PAYLOAD,2023-06-20 20:39:57,15.08842052,0.0001045,53.2177,30.8572,77.8956,282.2153,-3.3136e-05,-8.15e-06,0.0,0 STARLINK-4642,1 53720U 22107W   23171.86108751 -.00000815  00000-0 -33136-4 0  9995,2 53720  53.2177  30.8572 0001045  77.8956 282.2153 15.08842052 44535,6917.874,95.437,540.462,539.016,0.0
53720.0,STARLINK-4642,PAYLOAD,2023-06-20 23:50:43,15.08848187,0.0001084,53.2182,30.2619,75.0649,285.0463,1.5199e-05,-4.6e-07,0.0,0 STARLINK-4642,1 53720U 22107W   23171.99356163 -.00000046  00000-0  15199-4 0  9995,2 53720  53.2182  30.2619 0001084  75.0649 285.0463 15.08848187 44090,6917.855,95.437,540.47,538.97,0.0
53720.0,STARLINK-4642,PAYLOAD,2023-06-21 18:55:21,15.0883879,0.0001019,53.2181,26.6918,93.501,266.6099,-3.4586e-05,-8.38e-06,0.0,0 STARLINK-4642,1 53720U 22107W   23172.78844696 -.00000838  00000-0 -34586-4 0  9997,2 53720  53.2181  26.6918 0001019  93.5010 266.6099 15.08838790 44218,6917.884,95.438,540.454,539.044,0.0
53720.0,STARLINK-4642,PAYLOAD,2023-06-21 20:30:44,15.08837946,9.06e-05,53.218,26.3949,94.7303,265.3793,-2.8876e-05,-7.47e-06,0.0,0 STARLINK-4642,1 53720U 22107W   23172.85468704 -.00000747  00000-0 -28876-4 0  9991,2 53720  53.2180  26.3949 0000906  94.7303 265.3793 15.08837946 44680,6917.887,95.438,540.378,539.125,0.0
53720.0,STARLINK-4642,PAYLOAD,2023-06-21 23:41:30,15.08848952,9.71e-05,53.2177,25.8012,95.873,264.2373,-1.2971e-05,-4.94e-06,0.0,0 STARLINK-4642,1 53720U 22107W   23172.98716018 -.00000494  00000-0 -12971-4 0  9997,2 53720  53.2177  25.8012 0000971  95.8730 264.2373 15.08848952 44242,6917.853,95.437,540.39,539.046,0.0
53720.0,STARLINK-4642,PAYLOAD,2023-06-22 07:38:27,15.08839674,9.76e-05,53.218,24.3118,108.2579,251.8519,-0.00011554,-2.126e-05,0.0,0 STARLINK-4642,1 53720U 22107W   23173.31836827 -.00002126  00000-0 -11554-3 0  9995,2 53720  53.2180  24.3118 0000976 108.2579 251.8519 15.08839674 44292,6917.881,95.438,540.422,539.071,0.0
53720.0,STARLINK-4642,PAYLOAD,2023-06-23 07:29:13,15.08842774,9.44e-05,53.2179,19.8518,97.3292,262.7808,-1.2007e-06,-3.07e-06,0.0,0 STARLINK-4642,1 53720U 22107W   23174.31196261 -.00000307  00000-0 -12007-5 0  9992,2 53720  53.2179  19.8518 0000944  97.3292 262.7808 15.08842774 44442,6917.872,95.437,540.39,539.084,0.0
53720.0,STARLINK-4642,PAYLOAD,2023-06-24 16:52:20,15.08833507,0.0001015,53.2186,13.6066,94.802,265.3088,1.4534e-05,-5.6e-07,0.0,0 STARLINK-4642,1 53720U 22107W   23175.70300970 -.00000056  00000-0  14534-4 0  9996,2 53720  53.2186  13.6066 0001015  94.8020 265.3088 15.08833507 44657,6917.9,95.438,540.467,539.063,0.0
53720.0,STARLINK-4642,PAYLOAD,2023-06-25 00:49:14,15.08846321,0.0001026,53.2174,12.1224,82.3107,277.8002,5.2984e-05,5.56e-06,0.0,0 STARLINK-4642,1 53720U 22107W   23176.03420098  .00000556  00000-0  52984-4 0  9992,2 53720  53.2174  12.1224 0001026  82.3107 277.8002 15.08846321 44702,6917.861,95.437,540.436,539.016,0.0
53720.0,STARLINK-4642,PAYLOAD,2023-06-25 05:35:26,15.08825746,0.0001456,53.2186,11.2289,85.5811,274.5348,-9.9138e-05,-1.865e-05,0.0,0 STARLINK-4642,1 53720U 22107W   23176.23294023 -.00001865  00000-0 -99138-4 0  9999,2 53720  53.2186  11.2289 0001456  85.5811 274.5348 15.08825746 44738,6917.924,95.438,540.796,538.782,0.0
53720.0,STARLINK-4642,PAYLOAD,2023-06-25 16:43:07,15.08833792,9.05e-05,53.2177,9.1487,86.7022,273.4074,-1.9349e-05,-5.96e-06,0.0,0 STARLINK-4642,1 53720U 22107W   23176.69661312 -.00000596  00000-0 -19349-4 0  9994,2 53720  53.2177   9.1487 0000905  86.7022 273.4074 15.08833792 44801,6917.899,95.438,540.39,539.138,0.0
53720.0,STARLINK-4642,PAYLOAD,2023-06-25 19:53:53,15.08843951,9.25e-05,53.2176,8.5545,87.0305,273.0793,-1.0045e-05,-4.48e-06,0.0,0 STARLINK-4642,1 53720U 22107W   23176.82908681 -.00000448  00000-0 -10045-4 0  9992,2 53720  53.2176   8.5545 0000925  87.0305 273.0793 15.08843951 44822,6917.868,95.437,540.373,539.093,0.0
53720.0,STARLINK-4642,PAYLOAD,2023-06-26 16:33:54,15.08831058,0.0001042,53.2177,4.6898,83.7363,276.3748,-3.3538e-05,-8.21e-06,0.0,0 STARLINK-4642,1 53720U 22107W   23177.69021897 -.00000821  00000-0 -33538-4 0  9990,2 53720  53.2177   4.6898 0001042  83.7363 276.3748 15.08831058 44954,6917.908,95.438,540.494,539.052,0.0
53720.0,STARLINK-4642,PAYLOAD,2023-06-26 19:44:41,15.08762542,0.0001359,53.2182,4.0963,89.4788,270.636,0.00087936,0.00013705,0.0,0 STARLINK-4642,1 53720U 22107W   23177.82270743  .00013705  00000-0  87936-3 0  9994,2 53720  53.2182   4.0963 0001359  89.4788 270.6360 15.08762542 44972,6918.117,95.442,540.922,539.042,0.0
53720.0,STARLINK-4642,PAYLOAD,2023-06-27 11:38:32,15.08830727,6.87e-05,53.2181,1.1217,107.7217,252.385,0.00013533,1.866e-05,0.0,0 STARLINK-4642,1 53720U 22107W   23178.48509437  .00001866  00000-0  13533-3 0  9999,2 53720  53.2181   1.1217 0000687 107.7217 252.3850 15.08830727 45079,6917.909,95.438,540.249,539.298,0.0
53720.0,STARLINK-4642,PAYLOAD,2023-06-27 19:35:27,15.08843449,9.91e-05,53.2181,359.635,91.1207,268.9899,8.4114e-05,1.051e-05,0.0,0 STARLINK-4642,1 53720U 22107W   23178.81628993  .00001051  00000-0  84114-4 0  9995,2 53720  53.2181 359.6350 0000991  91.1207 268.9899 15.08843449 45128,6917.87,95.437,540.42,539.049,0.0
53720.0,STARLINK-4642,PAYLOAD,2023-06-28 05:07:46,15.08835947,9.61e-05,53.2188,357.8518,98.506,261.6042,5.1118e-06,-2.06e-06,0.0,0 STARLINK-4642,1 53720U 22107W   23179.21373628 -.00000206  00000-0  51118-5 0  9993,2 53720  53.2188 357.8518 0000961  98.5060 261.6042 15.08835947 45186,6917.893,95.438,540.423,539.093,0.0
53720.0,STARLINK-4642,PAYLOAD,2023-06-28 22:37:00,15.08843298,9.66e-05,53.2174,354.5781,89.1902,270.9201,8.0354e-05,9.91e-06,0.0,0 STARLINK-4642,1 53720U 22107W   23179.94237061  .00000991  00000-0  80354-4 0  9996,2 53720  53.2174 354.5781 0000966  89.1902 270.9201 15.08843298 45293,6917.87,95.437,540.404,539.067,0.0
53720.0,STARLINK-4642,PAYLOAD,2023-06-29 11:20:06,15.08833348,9.63e-05,53.2174,352.2005,92.7339,267.3763,-6.2816e-06,-3.88e-06,0.0,0 STARLINK-4642,1 53720U 22107W   23180.47229997 -.00000388  00000-0 -62816-5 0  9991,2 53720  53.2174 352.2005 0000963  92.7339 267.3763 15.08833348 45375,6917.901,95.438,540.432,539.1,0.0
53720.0,STARLINK-4642,PAYLOAD,2023-07-01 17:23:12,15.08839475,9.78e-05,53.2174,342.0896,83.6232,276.4872,2.6254e-05,1.3e-06,0.0,0 STARLINK-4642,1 53720U 22107W   23182.72445524  .00000130  00000-0  26254-4 0  9995,2 53720  53.2174 342.0896 0000978  83.6232 276.4872 15.08839475 45714,6917.882,95.438,540.424,539.07,0.0
53720.0,STARLINK-4642,PAYLOAD,2023-07-02 20:24:45,15.08845659,8.96e-05,53.2176,337.0338,83.8897,276.2197,3.5893e-05,2.84e-06,0.0,0 STARLINK-4642,1 53720U 22107W   23183.85053092  .00000284  00000-0  35893-4 0  9994,2 53720  53.2176 337.0338 0000896  83.8897 276.2197 15.08845659 45886,6917.863,95.437,540.348,539.108,0.0
53720.0,STARLINK-4642,PAYLOAD,2023-07-03 10:43:14,15.08833518,9.05e-05,53.2177,334.3577,85.3513,274.7583,-2.5622e-05,-6.95e-06,0.0,0 STARLINK-4642,1 53720U 22107W   23184.44670049 -.00000695  00000-0 -25622-4 0  9994,2 53720  53.2177 334.3577 0000905  85.3513 274.7583 15.08833518 45978,6917.9,95.438,540.391,539.139,0.0
53720.0,STARLINK-4642,PAYLOAD,2023-07-03 17:04:46,15.08847686,8.43e-05,53.2174,333.1671,85.8119,274.297,8.4557e-05,1.059e-05,0.0,0 STARLINK-4642,1 53720U 22107W   23184.71164740  .00001059  00000-0  84557-4 0  9995,2 53720  53.2174 333.1671 0000843  85.8119 274.2970 15.08847686 46017,6917.857,95.437,540.305,539.139,0.0
53720.0,STARLINK-4642,PAYLOAD,2023-07-04 10:34:01,15.08837886,9.18e-05,53.2175,329.8975,90.0878,270.022,-5.7529e-05,-1.203e-05,0.0,0 STARLINK-4642,1 53720U 22107W   23185.44030046 -.00001203  00000-0 -57529-4 0  9999,2 53720  53.2175 329.8975 0000918  90.0878 270.0220 15.08837886 46125,6917.887,95.438,540.387,539.117,0.0
53720.0,STARLINK-4642,PAYLOAD,2023-07-05 15:10:58,15.08837481,0.0001032,53.2186,324.546,94.7554,265.3556,-6.5948e-05,-1.337e-05,0.0,0 STARLINK-4642,1 53720U 22107W   23186.63262356 -.00001337  00000-0 -65948-4 0  9994,2 53720  53.2186 324.5460 0001032  94.7554 265.3556 15.08837481 46308,6917.888,95.438,540.467,539.039,0.0
53720.0,STARLINK-4642,PAYLOAD,2023-07-06 15:01:45,15.08841401,8.12e-05,53.2173,320.0847,88.37,271.7385,7.3066e-05,8.75e-06,0.0,0 STARLINK-4642,1 53720U 22107W   23187.62621750  .00000875  00000-0  73066-4 0  9995,2 53720  53.2173 320.0847 0000812  88.3700 271.7385 15.08841401 46455,6917.876,95.437,540.303,539.179,0.0
